[{"OBJECT_NAME":"STARLINK-5678","OBJECT_ID":"2023-015M","EPOCH":"2026-03-09T10:16:54.436512","MEAN_MOTION":15.0254131,"ECCENTRICITY":0.0001302,"INCLINATION":43.0049,"RA_OF_ASC_NODE":327.5029,"ARG_OF_PERICENTER":270.0774,"MEAN_ANOMALY":89.9919,"EPHEMERIS_TYPE":0,"CLASSIFICATION_TYPE":"U","NORAD_CAT_ID":55460,"ELEMENT_SET_NO":999,"REV_AT_EPOCH":17071,"BSTAR":0.00010889422,"MEAN_MOTION_DOT":1.268e-5,"MEAN_MOTION_DDOT":0},{"OBJECT_NAME":"CZ-4C DEB","OBJECT_ID":"2018-031G","EPOCH":"2026-03-09T17:35:43.516320","MEAN_MOTION":15.0216174,"ECCENTRICITY":0.00078465,"INCLINATION":97.7704,"RA_OF_ASC_NODE":152.3432,"ARG_OF_PERICENTER":232.9325,"MEAN_ANOMALY":127.1182,"EPHEMERIS_TYPE":0,"CLASSIFICATION_TYPE":"U","NORAD_CAT_ID":43265,"ELEMENT_SET_NO":999,"REV_AT_EPOCH":42950,"BSTAR":0.00075767681,"MEAN_MOTION_DOT":9.924e-5,"MEAN_MOTION_DDOT":0}]
